      2.10          N: GNSS NAV DATA                        RINEX VERSION / TYPE
fic2rin                                 07/27/2019 00:19:26 PGM / RUN BY / DATE
                                                            END OF HEADER
24 19  7 26 14  0  0.0-6.933091208339e-05-5.684341886081e-13 0.000000000000e+00
    3.000000000000e+01 5.050000000000e+01 4.962706716655e-09 4.513450873288e-01
    2.644956111908e-06 8.425312815234e-03 9.387731552124e-06 5.153710592270e+03
    4.824000000000e+05-1.862645149231e-09-9.001879439840e-01 1.657754182816e-07
    9.380865206461e-01 1.891250000000e+02 6.028341384844e-01-8.299988584983e-09
   -5.464513333200e-11 1.000000000000e+00 2.063000000000e+03 0.000000000000e+00
    2.400000000000e+00 0.000000000000e+00 2.793967723846e-09 3.000000000000e+01
    4.752000000000e+05 4.000000000000e+00
17 19  7 26 14  0  0.0 9.548710659146e-05 6.707523425575e-12 0.000000000000e+00
    1.600000000000e+01-7.134375000000e+01 4.059097649138e-09 2.240491020713e+00
   -3.786757588387e-06 1.290278707165e-02 6.156042218208e-06 5.153775005341e+03
    4.824000000000e+05 1.583248376846e-07 1.301033113846e+00-1.639127731323e-07
    9.840206298261e-01 2.692812500000e+02-1.711029005992e+00-7.773538084778e-09
   -2.571535686212e-10 1.000000000000e+00 2.063000000000e+03 0.000000000000e+00
    2.400000000000e+00 0.000000000000e+00-1.117587089539e-08 1.600000000000e+01
    4.752000000000e+05 4.000000000000e+00
12 19  7 26 14  0  0.0 2.201949246228e-04-3.637978807092e-12 0.000000000000e+00
    1.100000000000e+01 5.315625000000e+01 4.336966366343e-09-1.179652704447e+00
    3.019347786903e-06 7.532424060628e-03 4.546716809273e-06 5.153606389999e+03
    4.824000000000e+05 7.823109626770e-08 2.675460991575e-01 1.937150955200e-07
    9.823878523287e-01 3.056875000000e+02 1.105564166294e+00-8.110694985859e-09
    1.396486740707e-10 1.000000000000e+00 2.063000000000e+03 0.000000000000e+00
    2.400000000000e+00 0.000000000000e+00-1.257285475731e-08 1.100000000000e+01
    4.752000000000e+05 4.000000000000e+00
10 19  7 26 14  0  0.0-2.959324046969e-05-1.341504685115e-11 0.000000000000e+00
    3.700000000000e+01-5.687500000000e+00 4.517688179846e-09-1.858509347083e+00
   -2.644956111908e-07 4.677220364101e-03 6.968155503273e-06 5.153659812927e+03
    4.824000000000e+05-2.235174179077e-08-2.944287189402e+00-6.705522537231e-08
    9.636796375365e-01 2.483750000000e+02-2.710951676762e+00-7.981046728346e-09
    1.857220217820e-10 1.000000000000e+00 2.063000000000e+03 0.000000000000e+00
    2.400000000000e+00 0.000000000000e+00 1.862645149231e-09 3.700000000000e+01
    4.752000000000e+05 4.000000000000e+00
25 19  7 26 14  0  0.0-3.540422767401e-06-2.501110429876e-12 0.000000000000e+00
    6.800000000000e+01 5.618750000000e+01 4.516259548909e-09-1.541907492465e+00
    3.004446625710e-06 8.378248778172e-03 4.358589649200e-06 5.153684232712e+03
    4.824000000000e+05 1.620501279831e-07 2.025064919854e-01-1.117587089539e-08
    9.698035003913e-01 2.988125000000e+02 9.051795418927e-01-8.119623929214e-09
    2.003654888840e-10 1.000000000000e+00 2.063000000000e+03 0.000000000000e+00
    2.400000000000e+00 0.000000000000e+00 5.587935447693e-09 6.800000000000e+01
    4.752000000000e+05 4.000000000000e+00
13 19  7 26 14  0  0.0-5.277618765831e-05 1.818989403546e-12 0.000000000000e+00
    3.700000000000e+01-1.221875000000e+01 4.363038880939e-09 1.414406146048e+00
   -6.444752216339e-07 3.577058669180e-03 8.849427103996e-06 5.153666337967e+03
    4.824000000000e+05-3.911554813385e-08-1.771041017230e+00-7.450580596924e-08
    9.675685507024e-01 2.115937500000e+02 1.241665161069e+00-7.982118201548e-09
   -2.750114553310e-10 1.000000000000e+00 2.063000000000e+03 0.000000000000e+00
    2.400000000000e+00 0.000000000000e+00-1.117587089539e-08 3.700000000000e+01
    4.752000000000e+05 4.000000000000e+00
22 19  7 26 14  0  0.0-7.360973395407e-04-4.888534022029e-12 0.000000000000e+00
    8.400000000000e+01-1.103125000000e+01 5.492371636467e-09 1.471967361349e+00
   -8.549541234970e-07 7.083826116286e-03 6.245449185371e-06 5.153744232178e+03
    4.824000000000e+05 1.080334186554e-07-3.016329084682e+00-1.508742570877e-07
    9.282546637041e-01 2.395937500000e+02-1.307505477434e+00-8.504639966677e-09
    1.121475285376e-10 1.000000000000e+00 2.063000000000e+03 0.000000000000e+00
    2.400000000000e+00 0.000000000000e+00-1.816079020500e-08 8.400000000000e+01
    4.752000000000e+05 4.000000000000e+00
30 19  7 26 14  0  0.0-6.803777068853e-06-7.617018127348e-12 0.000000000000e+00
    7.700000000000e+01 7.650000000000e+01 4.861631077877e-09-4.792305163889e-01
    4.015862941742e-06 4.189845407382e-03 9.346753358841e-06 5.153779581070e+03
    4.824000000000e+05 9.126961231232e-08-8.059417522861e-01 1.676380634308e-08
    9.403983057184e-01 1.854687500000e+02-2.924262507797e+00-8.262487022892e-09
    8.428922527028e-11 1.000000000000e+00 2.063000000000e+03 0.000000000000e+00
    3.400000000000e+00 0.000000000000e+00 3.725290298462e-09 7.700000000000e+01
    4.752000000000e+05 4.000000000000e+00
15 19  7 26 14  0  0.0-2.983738668263e-04 2.501110429876e-12 0.000000000000e+00
    5.100000000000e+01-2.518750000000e+01 5.404867991589e-09 1.468273392257e+00
   -1.275911927223e-06 1.149499684107e-02 7.858499884605e-06 5.153726392746e+03
    4.824000000000e+05-1.750886440277e-07-1.990825183231e+00-7.450580596924e-09
    9.277820738703e-01 2.151875000000e+02 7.908696028249e-01-8.560713730946e-09
   -3.400141629547e-10 1.000000000000e+00 2.063000000000e+03 0.000000000000e+00
    2.400000000000e+00 0.000000000000e+00-1.071020960808e-08 5.100000000000e+01
    4.752000000000e+05 4.000000000000e+00
11 19  7 26 14  0  0.0-5.515208467841e-04 9.663381206337e-12 0.000000000000e+00
    4.200000000000e+01-5.562500000000e+01 5.770597511406e-09-5.600209280338e-01
   -2.847984433174e-06 1.675585366320e-02 8.672475814819e-06 5.153720520020e+03
    4.824000000000e+05-2.086162567139e-07 1.845457886866e+00-4.470348358154e-08
    9.099436882242e-01 1.855937500000e+02 1.914708581264e+00-8.979302595424e-09
    7.536028191537e-11 1.000000000000e+00 2.063000000000e+03 0.000000000000e+00
    2.400000000000e+00 0.000000000000e+00-1.210719347000e-08 4.200000000000e+01
    4.752000000000e+05 4.000000000000e+00
23 19  7 26 14  0  0.0-1.753643155098e-04 1.818989403546e-12 0.000000000000e+00
    5.000000000000e+01-1.278125000000e+01 4.991636493124e-09 9.985952101273e-01
   -5.569308996201e-07 1.325419335626e-02 8.486211299896e-06 5.153784082413e+03
    4.824000000000e+05-1.825392246246e-07-1.914929710109e+00 5.401670932770e-08
    9.430425754971e-01 2.109375000000e+02-2.238579509045e+00-8.337847304808e-09
   -4.064455015151e-10 1.000000000000e+00 2.063000000000e+03 0.000000000000e+00
    2.400000000000e+00 0.000000000000e+00-2.002343535423e-08 5.000000000000e+01
    4.752000000000e+05 4.000000000000e+00
14 19  7 26 14  0  0.0-6.967689841986e-05 1.818989403546e-12 0.000000000000e+00
    1.020000000000e+02-1.365625000000e+01 4.405183493574e-09 2.096872348864e+00
   -7.618218660355e-07 1.079089136329e-02 8.447095751762e-06 5.153726476669e+03
    4.824000000000e+05 3.166496753693e-08-1.815879690426e+00-2.123415470123e-07
    9.601599619678e-01 2.143125000000e+02-1.932048796490e+00-7.864613306998e-09
   -1.875078104529e-10 1.000000000000e+00 2.063000000000e+03 0.000000000000e+00
    3.400000000000e+00 0.000000000000e+00-9.778887033463e-09 1.020000000000e+02
    4.752000000000e+05 4.000000000000e+00
19 19  7 26 14  0  0.0-2.891747280955e-04 4.888534022029e-12 0.000000000000e+00
    8.000000000000e+01-6.168750000000e+01 4.181602751968e-09-1.227394305968e+00
   -2.957880496979e-06 9.590140311047e-03 6.673857569695e-06 5.153643774033e+03
    4.824000000000e+05-5.774199962616e-08 1.347185641084e+00 2.104789018631e-07
    9.819016280984e-01 2.631562500000e+02 1.462688471349e+00-8.053192590653e-09
   -1.950081228711e-10 1.000000000000e+00 2.063000000000e+03 0.000000000000e+00
    2.400000000000e+00 0.000000000000e+00-1.536682248116e-08 8.000000000000e+01
    4.752000000000e+05 4.000000000000e+00
21 19  7 26 14  0  0.0-1.476397737861e-04 6.934897101019e-12 0.000000000000e+00
    5.200000000000e+01-3.287500000000e+01 4.608763402066e-09-1.677329223655e+00
   -1.445412635803e-06 2.448887831997e-02 8.750706911087e-06 5.153699243546e+03
    4.824000000000e+05-3.539025783539e-08 2.234414385242e+00 6.314367055893e-07
    9.492601002191e-01 2.037812500000e+02-1.426065840132e+00-8.054978379324e-09
    3.214419607765e-12 1.000000000000e+00 2.063000000000e+03 0.000000000000e+00
    2.400000000000e+00 0.000000000000e+00-1.024454832077e-08 5.200000000000e+01
    4.752000000000e+05 4.000000000000e+00
31 19  7 26 14  0  0.0 2.168258652091e-05-2.614797267597e-12 0.000000000000e+00
    6.000000000000e+01 5.768750000000e+01 4.409112228651e-09-7.670917609995e-01
    2.972781658173e-06 9.231939096935e-03 8.717179298401e-06 5.153661159515e+03
    4.824000000000e+05 1.303851604462e-07-8.189300656443e-01-1.490116119385e-07
    9.594898386945e-01 2.051250000000e+02 1.249821824667e-02-8.027477233791e-09
    6.143113028173e-11 1.000000000000e+00 2.063000000000e+03 0.000000000000e+00
    2.400000000000e+00 0.000000000000e+00-1.350417733192e-08 6.000000000000e+01
    4.752000000000e+05 4.000000000000e+00
29 19  7 26 14  0  0.0 1.414520666003e-04-9.890754881781e-12 0.000000000000e+00
    6.800000000000e+01-5.637500000000e+01 4.153744448700e-09 2.723515925279e+00
   -2.810731530190e-06 1.210488262586e-03 5.602836608887e-06 5.153722166061e+03
    4.824000000000e+05 8.754432201385e-08 1.312270936003e+00-5.960464477539e-08
    9.855114413644e-01 2.836562500000e+02 1.868697496260e+00-7.999976088258e-09
   -1.525063525017e-10 1.000000000000e+00 2.063000000000e+03 0.000000000000e+00
    2.400000000000e+00 0.000000000000e+00-9.778887033463e-09 6.800000000000e+01
    4.752000000000e+05 4.000000000000e+00
